[{"OBJECT_NAME":"GHGSAT-C3","OBJECT_ID":"2022-057F","EPOCH":"2026-03-09T22:30:13.234752","MEAN_MOTION":15.32943835,"ECCENTRICITY":0.00073198,"INCLINATION":97.6431,"RA_OF_ASC_NODE":211.0668,"ARG_OF_PERICENTER":112.4588,"MEAN_ANOMALY":247.7429,"EPHEMERIS_TYPE":0,"CLASSIFICATION_TYPE":"U","NORAD_CAT_ID":52737,"ELEMENT_SET_NO":999,"REV_AT_EPOCH":21032,"BSTAR":0.00031249517,"MEAN_MOTION_DOT":9.871e-5,"MEAN_MOTION_DDOT":0},{"OBJECT_NAME":"STARLINK-32167","OBJECT_ID":"2024-131P","EPOCH":"2026-03-09T22:54:32.915232","MEAN_MOTION":15.30188019,"ECCENTRICITY":0.00012327,"INCLINATION":53.1616,"RA_OF_ASC_NODE":50.8918,"ARG_OF_PERICENTER":93.6663,"MEAN_ANOMALY":266.4478,"EPHEMERIS_TYPE":0,"CLASSIFICATION_TYPE":"U","NORAD_CAT_ID":60268,"ELEMENT_SET_NO":999,"REV_AT_EPOCH":9176,"BSTAR":4.4696579e-5,"MEAN_MOTION_DOT":9.64e-6,"MEAN_MOTION_DDOT":0}]
